0 COSMOS 2251 DEB
1 34429U 93036RW  13281.85434590  .00002913  00000-0  76138-3 0  9461
2 34429 074.0166 082.4040 0052328 242.6701 232.2374 14.49043236244715
0 COSMOS 2251 DEB
1 34429U 93036RW  13284.13303536  .00004046  00000-0  10542-2 0  9476
2 34429 074.0163 078.1259 0052284 237.9821 239.0871 14.49060802245049
0 COSMOS 2251 DEB
1 34429U 93036RW  13286.46843205  .00003194  00000-0  83345-3 0  9482
2 34429 074.0161 073.7417 0052304 233.1641 181.8875 14.49075735245381
0 COSMOS 2251 DEB
1 34429U 93036RW  13288.48122222  .00005330  00000-0  13850-2 0  9493
2 34429 074.0168 069.9618 0052256 229.1339 241.7705 14.49092865245676
0 COSMOS 2251 DEB
1 34429U 93036RW  13290.69006796  .00005556  00000-0  14428-2 0  9500
2 34429 074.0174 065.8157 0052205 224.5639 244.6904 14.49109539245997
0 COSMOS 2251 DEB
1 34429U 93036RW  13292.84032848  .00005068  00000-0  13164-2 0  9511
2 34429 074.0179 061.7789 0052192 220.2338 302.0100 14.49128009246308
0 COSMOS 2251 DEB
1 34429U 93036RW  13295.09737087  .00005698  00000-0  14784-2 0  9527
2 34429 074.0179 057.5412 0052116 215.6077 196.6171 14.49146544246633
